SAR-LUPE 2              
1 31797U 07030A   26170.60579509  .00029201  00000+0  51243-3 0  9995
2 31797  98.1044 275.3377 0004067 151.7659 208.3812 15.50504022 57314
SAPPHIRE                
1 39088U 13009C   26170.60188197  .00000064  00000+0  37461-4 0  9991
2 39088  98.4262 350.0003 0010150 238.6528 121.3665 14.35241092696920
PRAETORIAN SDA_602      
1 65565U 25203A   26169.83092833  .00000049  00000+0  33229-4 0  9994
2 65565  81.3030   9.2458 0005866 179.4644 180.6520 13.84342963 38929
PRAETORIAN SDA_603      
1 65566U 25203B   26170.58112349  .00000140  00000+0  11588-3 0  9999
2 65566  81.3032   8.4689 0009533 180.8076 179.3067 13.83905495 39037
PRAETORIAN SDA_604      
1 65567U 25203C   26170.31294823  .00000047  00000+0  32044-4 0  9996
2 65567  81.3052   9.1330 0005379 185.3961 174.7138 13.83047683 38974
PRAETORIAN SDA_605      
1 65568U 25203D   26170.56698150  .00000040  00000+0  25387-4 0  9990
2 65568  81.3018   8.5589 0008211 176.4621 183.6595 13.83434388 39023
PRAETORIAN SDA_606      
1 65569U 25203E   26168.30750804  .00000053  00000+0  37439-4 0  9990
2 65569  81.3055  10.8712 0005744 180.4388 179.6764 13.83407378 38708
PRAETORIAN SDA_607      
1 65570U 25203F   26170.55611284  .00000169  00000+0  14088-3 0  9992
2 65570  81.3037   8.4508 0008750 180.9111 179.2032 13.84284792 39030
PRAETORIAN SDA_608      
1 65571U 25203G   26170.24509655  .00000053  00000+0  37188-4 0  9996
2 65571  81.3006   8.9020 0005868 185.0246 175.0852 13.83817092 38973
PRAETORIAN SDA_609      
1 65572U 25203H   26170.03257142 -.00000063  00000+0 -66999-4 0  9990
2 65572  81.3047   9.0814 0006798 180.1964 179.9191 13.84210663 38957
PRAETORIAN SDA_610      
1 65573U 25203J   26169.06797639  .00000038  00000+0  23778-4 0  9990
2 65573  81.3007   9.9498 0006474 186.0221 174.0859 13.83851939 38811
PRAETORIAN SDA_611      
1 65574U 25203K   26170.58802908 -.00000081  00000+0 -84739-4 0  9990
2 65574  81.3010   8.7092 0005512 187.4825 172.6250 13.83309060 39015
PRAETORIAN SDA_612      
1 65575U 25203L   26170.57464741  .00000246  00000+0  20702-3 0  9999
2 65575  81.3027   8.3030 0009248 180.1298 179.9858 13.85039372 39041
PRAETORIAN SDA_613      
1 65576U 25203M   26170.52336072  .00000041  00000+0  26801-4 0  9990
2 65576  81.2998   8.7686 0005692 177.3075 182.8112 13.82765241 39009
PRAETORIAN SDA_614      
1 65577U 25203N   26170.56427396  .00000083  00000+0  63297-4 0  9991
2 65577  81.3014   8.3908 0007141 176.9645 183.1556 13.84777506 39041
PRAETORIAN SDA_615      
1 65578U 25203P   26170.25266291  .00000152  00000+0  12530-3 0  9993
2 65578  81.3022   8.6451 0009007 179.8196 180.2966 13.84436513 38999
PRAETORIAN SDA_616      
1 65579U 25203Q   26170.58731521  .00000097  00000+0  77234-4 0  9994
2 65579  81.3062   8.8574 0005407 185.4620 174.6478 13.83267627 39013
PRAETORIAN SDA_617      
1 65580U 25203R   26170.24743241  .00000025  00000+0  12415-4 0  9992
2 65580  81.3036   9.0027 0007371 178.4455 181.6725 13.83150142 38972
PRAETORIAN SDA_618      
1 65581U 25203S   26170.57966066  .00000143  00000+0  11651-3 0  9992
2 65581  81.3023   8.2706 0009636 181.7388 178.3737 13.84668951 39040
PRAETORIAN SDA_619      
1 65582U 25203T   26170.54479615  .00000150  00000+0  12456-3 0  9991
2 65582  81.3041   8.6043 0008202 178.9955 181.1219 13.83805410 39651
PRAETORIAN SDA_620      
1 65583U 25203U   26170.57310508  .00000052  00000+0  36446-4 0  9997
2 65583  81.3031   8.5988 0007620 174.6384 185.4855 13.83618154 39021
PRAETORIAN SDA_621      
1 65584U 25203V   26170.47427172  .00000046  00000+0  31028-4 0  9997
2 65584  81.3020   8.6074 0007472 172.4540 187.6730 13.83801467 39018
PRAETORIAN SDA_601      
1 65585U 25203W   26170.51828656  .00000175  00000+0  14901-3 0  9998
2 65585  81.3040   8.8647 0005451 188.7382 171.3680 13.83168036 39009
